STARLINK-37491          
1 69166U 26111U   26160.04879810  .00173071  00000+0  97815-3 0  9992
2 69166  53.1586 192.4096 0000903  90.5039 269.6086 15.78109617  2977
STARLINK-37474          
1 69167U 26111V   26160.04624416  .00162677  00000+0  92081-3 0  9993
2 69167  53.1587 192.3913 0001013  75.5413 284.5721 15.78108431  2973
STARLINK-37469          
1 69168U 26111W   26160.16670139 -.02532972  00000+0 -33930-1 0  9999
2 69168  53.1603 191.9483 0001330  87.2839 160.0746 15.61114278  4250
STARLINK-37515          
1 69169U 26111X   26159.91794068  .00195478  00000+0  11026-2 0  9994
2 69169  53.1592 193.0133 0001380 356.1169   3.9842 15.78085664  2953
STARLINK-37437          
1 69170U 26111Y   26160.16670139 -.00030766  00000+0 -17375-3 0  9991
2 69170  53.1596 191.7215 0001130  85.0118 273.4210 15.78083722  4251
STARLINK-37392          
1 69171U 26111Z   26160.16670139 -.00041517  00000+0 -23622-3 0  9990
2 69171  53.1594 191.6915 0001232  87.9937 284.7796 15.78073047  4252
STARLINK-37472          
1 69172U 26111AA  26160.16670139 -.00010692  00000+0 -57800-4 0  9997
2 69172  53.1599 191.6598 0001152  93.0302 294.9474 15.78057257  4251
STARLINK-37461          
1 69173U 26111AB  26160.16670139 -.02522622  00000+0 -31443-1 0  9993
2 69173  53.1591 191.8864 0001178  99.2917 177.9962 15.62930866  4251
STARLINK-37333          
1 69174U 26111AC  26160.04298859  .00143016  00000+0  81288-3 0  9992
2 69174  53.1580 192.3680 0001033  71.6931 288.4202 15.78079962  2972
STARLINK-37385          
1 69175U 26111AD  26160.16670139 -.02542085  00000+0 -29299-1 0  9996
2 69175  53.1599 191.8359 0000877  86.7820 214.9539 15.64923141  4251
STARLINK-37414          
1 69176U 26111AE  26160.16670139 -.00023616  00000+0 -13238-3 0  9997
2 69176  53.1592 191.7006 0001249  91.7483 276.3828 15.78080221  4259
STRIX-7                 
1 69177U 26112A   26160.05506825  .00002737  00000+0  22552-3 0  9995
2 69177  44.9066 235.1599 0023988   1.0213 359.0703 15.01394446  2659
SHENZHOU-23 (SZ-23)     
1 69180U 26113A   26159.52989194  .00024398  00000+0  29104-3 0  9991
2 69180  41.4696  14.6734 0008548   8.8388 351.2600 15.60445632291882
STARLINK-37380          
1 69182U 26114A   26160.04959892  .00148137  00000+0  83947-3 0  9998
2 69182  53.1583 243.1222 0000939  96.0275 264.0854 15.78129901  3486
STARLINK-37089          
1 69183U 26114B   26160.04866625  .00113995  00000+0  65016-3 0  9991
2 69183  53.1583 243.1147 0000758 108.6846 251.4258 15.78106124  3486
STARLINK-37428          
1 69184U 26114C   26160.04725791  .00192852  00000+0  10857-2 0  9991
2 69184  53.1582 243.1059 0000676 117.0467 243.0623 15.78136434  3480
STARLINK-37237          
1 69185U 26114D   26160.04450781  .00136952  00000+0  77803-3 0  9990
2 69185  53.1587 243.0871 0000770 109.7286 250.3819 15.78111788  3482
STARLINK-37365          
1 69186U 26114E   26160.04481882  .00145794  00000+0  82658-3 0  9995
2 69186  53.1587 243.0889 0000933 121.0855 239.0258 15.78127144  3486
STARLINK-37209          
1 69187U 26114F   26160.04405014  .00232093  00000+0  12997-2 0  9996
2 69187  53.1586 243.0841 0001334 345.7130  14.3854 15.78137733  3482
STARLINK-37359          
1 69188U 26114G   26160.04360720  .00220078  00000+0  12342-2 0  9995
2 69188  53.1587 243.0814 0001119 354.2949   5.8059 15.78140265  3484
STARLINK-37440          
1 69189U 26114H   26160.16670139  .00146843  00000+0  73764-3 0  9990
2 69189  53.1592 242.0279 0001017 107.0458  84.4424 15.80792998  3524
STARLINK-37282          
1 69190U 26114J   26160.16670139 -.00003243  00000+0 -14854-4 0  9996
2 69190  53.1600 242.3897 0000866 107.4602 268.9986 15.78039563  3522
STARLINK-37422          
1 69191U 26114K   26160.09714381  .00184247  00000+0  91388-3 0  9995
2 69191  53.1591 242.6995 0000842 113.9362 246.1749 15.80952711  3496
STARLINK-37424          
1 69192U 26114L   26160.16670139  .00061925  00000+0  35878-3 0  9995
2 69192  53.1597 242.3921 0001144  93.3773 282.4805 15.78000337  3527
STARLINK-36666          
1 69193U 26114M   26160.09736612  .00109966  00000+0  55256-3 0  9997
2 69193  53.1589 242.7016 0000829  28.8697 331.2372 15.80914292  3490
STARLINK-37355          
1 69194U 26114N   26160.09661456  .00019735  00000+0  10330-3 0  9999
2 69194  53.1590 242.6960 0001336  30.4724 329.6376 15.80873192  3492
STARLINK-37166          
1 69195U 26114P   26160.09510604  .00046110  00000+0  23597-3 0  9994
2 69195  53.1590 242.6852 0000901  58.6611 301.4500 15.80866914  3498
STARLINK-36933          
1 69196U 26114Q   26160.09586609  .00105979  00000+0  53306-3 0  9993
2 69196  53.1588 242.6909 0001302  12.8650 347.2406 15.80907362  3496
STARLINK-37419          
1 69197U 26114R   26160.09436315  .00274678  00000+0  13443-2 0  9992
2 69197  53.1587 242.6804 0001077 143.2629 216.8467 15.80987085  3492
